     2.100          NAVIGATION                              RINEX VERSION / TYPE
fic2rin                                 04/28/2012 00:06:06 PGM / RUN BY / DATE
                                                            END OF HEADER
14 12  4 27  2  0  0.0  .201229937375D-03  .102318153949D-11  .000000000000D+00
     .920000000000D+02  .796875000000D+02  .393873549271D-08  .208906081983D+01
     .425614416599D-05  .622431375086D-02  .693649053574D-05  .515358499146D+04
     .439200000000D+06 -.428408384323D-07  .155421962753D+01 -.178813934326D-06
     .978724428967D+00  .253093750000D+03 -.206522860134D+01 -.782032574796D-08
     .201794119821D-09  .100000000000D+01  .168500000000D+04  .000000000000D+00
     .240000000000D+01  .000000000000D+00 -.884756445885D-08  .920000000000D+02
     .432006000000D+06  .400000000000D+01
15 12  4 27  2  0  0.0 -.913422554731D-04  .000000000000D+00  .000000000000D+00
     .260000000000D+02  .852187500000D+02  .466733727047D-08  .159885400422D+01
     .446848571301D-05  .437369663268D-02  .771135091782D-05  .515355485153D+04
     .439200000000D+06 -.242143869400D-07  .146736732663D+01  .391155481339D-07
     .945619292108D+00  .221187500000D+03  .549625695488D-01 -.819784147300D-08
     .339299847486D-10  .100000000000D+01  .168500000000D+04  .000000000000D+00
     .240000000000D+01  .000000000000D+00 -.102445483208D-07  .260000000000D+02
     .432006000000D+06  .400000000000D+01
16 12  4 27  2  0  0.0 -.232823193073D-03 -.136424205266D-11  .000000000000D+00
     .900000000000D+01 -.798125000000D+02  .405838333367D-08 -.287213282498D+01
    -.410713255405D-05  .664411473554D-02  .813789665699D-05  .515366304207D+04
     .439200000000D+06 -.145286321640D-06 -.265755112044D+01  .372529029846D-08
     .980489192396D+00  .234250000000D+03 -.391688562258D-01 -.769960643380D-08
     .142863093678D-11  .100000000000D+01  .168500000000D+04  .000000000000D+00
     .240000000000D+01  .000000000000D+00 -.977888703346D-08  .900000000000D+01
     .432006000000D+06  .400000000000D+01
17 12  4 27  2  0  0.0  .132970511913D-03 -.272848410532D-11  .000000000000D+00
     .150000000000D+02 -.234062500000D+02  .447804367135D-08  .243175847778D+01
    -.133365392685D-05  .732133572455D-02  .942125916481D-05  .515367131805D+04
     .439200000000D+06 -.614672899246D-07 -.161698760234D+01 -.968575477600D-07
     .962425714860D+00  .197093750000D+03 -.230187355944D+01 -.780568228086D-08
     .286083345091D-09  .100000000000D+01  .168500000000D+04  .000000000000D+00
     .240000000000D+01  .000000000000D+00 -.107102096081D-07  .150000000000D+02
     .432006000000D+06  .400000000000D+01
19 12  4 27  2  0  0.0 -.259539112449D-03 -.375166564481D-11  .000000000000D+00
     .106000000000D+03 -.700000000000D+01  .469233831187D-08  .159065936619D+01
    -.856816768646D-07  .817968568299D-02  .877864658833D-05  .515377962303D+04
     .439200000000D+06 -.558793544769D-08 -.156384434113D+01  .135973095894D-06
     .959795635386D+00  .209562500000D+03  .150729493848D+00 -.805212111745D-08
     .178221709364D-09  .100000000000D+01  .168500000000D+04  .000000000000D+00
     .240000000000D+01  .000000000000D+00 -.144354999065D-07  .106000000000D+03
     .432006000000D+06  .400000000000D+01
20 12  4 27  2  0  0.0  .632437877357D-04  .000000000000D+00  .000000000000D+00
     .250000000000D+02  .225937500000D+02  .503913847177D-08 -.201392950342D+01
     .116042792797D-05  .503486068919D-02  .886805355549D-05  .515371602440D+04
     .439200000000D+06  .132247805595D-06  .397934217432D+00 -.558793544769D-08
     .930792871922D+00  .193218750000D+03  .129451416802D+01 -.812962434577D-08
    -.371086885830D-09  .100000000000D+01  .168500000000D+04  .000000000000D+00
     .240000000000D+01  .000000000000D+00 -.791624188423D-08  .250000000000D+02
     .432006000000D+06  .400000000000D+01
21 12  4 27  2  0  0.0 -.219905748963D-03 -.250111042988D-11  .000000000000D+00
     .370000000000D+02  .393750000000D+01  .535308012013D-08 -.130872287836D+01
     .262632966042D-06  .190421377774D-01  .581517815590D-05  .515361551666D+04
     .439200000000D+06  .454485416412D-06 -.599092261752D+00  .117346644402D-06
     .931438188494D+00  .247250000000D+03 -.226089467417D+01 -.834570477496D-08
    -.771460705864D-10  .100000000000D+01  .168500000000D+04  .000000000000D+00
     .240000000000D+01  .000000000000D+00 -.111758708954D-07  .370000000000D+02
     .432006000000D+06  .400000000000D+01
22 12  4 27  2  0  0.0  .143583398312D-03  .113686837722D-12  .000000000000D+00
     .630000000000D+02  .152812500000D+02  .504128141818D-08  .308945559035D+01
     .730156898499D-06  .597432209179D-02  .908970832825D-05  .515368138313D+04
     .439200000000D+06  .372529029846D-08  .455096676375D+00 -.372529029846D-08
     .928056733814D+00  .187125000000D+03 -.201575065942D+01 -.810426614664D-08
    -.283583240952D-09  .100000000000D+01  .168500000000D+04  .000000000000D+00
     .240000000000D+01  .000000000000D+00 -.167638063431D-07  .630000000000D+02
     .432006000000D+06  .400000000000D+01
23 12  4 27  2  0  0.0  .210940372199D-03 -.363797880709D-11  .000000000000D+00
     .520000000000D+02  .864062500000D+02  .439589739249D-08  .120067041046D+01
     .456906855106D-05  .777150632348D-02  .659003853798D-05  .515364492035D+04
     .439200000000D+06 -.484287738800D-07  .150265050713D+01  .156462192535D-06
     .960325927098D+00  .252312500000D+03 -.302216972075D+01 -.806033574534D-08
     .235724104569D-10  .100000000000D+01  .168500000000D+04  .000000000000D+00
     .240000000000D+01  .000000000000D+00 -.200234353542D-07  .520000000000D+02
     .432006000000D+06  .400000000000D+01
25 12  4 27  2  0  0.0  .333744101226D-04  .341060513165D-12  .000000000000D+00
     .740000000000D+02 -.817187500000D+02  .440268338944D-08 -.176915890144D+01
    -.426918268204D-05  .157529197168D-02  .694021582603D-05  .515372585297D+04
     .439200000000D+06  .409781932831D-07 -.270938030086D+01 -.484287738800D-07
     .968502596101D+00  .251343750000D+03  .628512438169D+00 -.796961768085D-08
     .182150444440D-10  .100000000000D+01  .168500000000D+04  .000000000000D+00
     .240000000000D+01  .000000000000D+00  .558793544769D-08  .740000000000D+02
     .432006000000D+06  .400000000000D+01
26 12  4 27  2  0  0.0 -.358791556209D-03 -.525233190274D-10  .000000000000D+00
     .670000000000D+02  .829687500000D+02  .398230873629D-08  .105296590643D+01
     .424496829510D-05  .209601868410D-01  .770203769207D-05  .515366538429D+04
     .439200000000D+06 -.298023223877D-06  .157477484662D+01  .931322574615D-08
     .983406003813D+00  .245562500000D+03  .119011448221D+01 -.819176979152D-08
     .892894335490D-11  .100000000000D+01  .168500000000D+04  .000000000000D+00
     .240000000000D+01  .000000000000D+00 -.605359673500D-08  .670000000000D+02
     .432006000000D+06  .400000000000D+01
28 12  4 27  2  0  0.0  .137792434543D-03  .409272615798D-11  .000000000000D+00
     .560000000000D+02 -.978125000000D+02  .404338270883D-08  .300754681295D+01
    -.501982867718D-05  .178554015001D-01  .775046646595D-05  .515363491631D+04
     .439200000000D+06  .242143869400D-06 -.265077945990D+01 -.191852450371D-06
     .978840786545D+00  .236312500000D+03 -.182922044855D+01 -.758067290831D-08
    -.714315468392D-10  .100000000000D+01  .168500000000D+04  .000000000000D+00
     .240000000000D+01  .000000000000D+00 -.107102096081D-07  .560000000000D+02
     .432006000000D+06  .400000000000D+01
29 12  4 27  2  0  0.0  .307231210172D-03  .363797880709D-11  .000000000000D+00
     .990000000000D+02 -.207187500000D+02  .453876048616D-08 -.105299654725D+01
    -.104308128357D-05  .231456919573D-02  .861473381519D-05  .515359337997D+04
     .439200000000D+06 -.298023223877D-07 -.160842805403D+01 -.689178705215D-07
     .962954722129D+00  .211812500000D+03 -.114834885423D+01 -.797497504686D-08
     .259653672761D-09  .100000000000D+01  .168500000000D+04  .000000000000D+00
     .240000000000D+01  .000000000000D+00 -.931322574615D-08  .990000000000D+02
     .432006000000D+06  .400000000000D+01
30 12  4 27  2  0  0.0 -.151045620441D-03 -.193267624127D-10  .000000000000D+00
     .930000000000D+02 -.812500000000D+02  .450804492102D-08  .231267476492D+01
    -.433251261711D-05  .109907882288D-01  .678747892380D-05  .515364995193D+04
     .439200000000D+06  .111758708954D-06 -.279995014871D+01 -.121071934700D-06
     .959770989606D+00  .247406250000D+03  .155707325405D+01 -.790675791963D-08
    -.735744932444D-10  .100000000000D+01  .168500000000D+04  .000000000000D+00
     .240000000000D+02  .000000000000D+00 -.419095158577D-08  .930000000000D+02
     .432006000000D+06  .400000000000D+01
32 12  4 27  2  0  0.0 -.437363516539D-03 -.432009983342D-11  .000000000000D+00
     .660000000000D+02  .252500000000D+02  .465197948790D-08  .193478189612D+00
     .118091702461D-05  .118080575485D-01  .904500484467D-05  .515369734383D+04
     .439200000000D+06  .135973095894D-06  .529594394178D+00 -.126659870148D-06
     .952252665923D+00  .203500000000D+03 -.586520123717D+00 -.819712715753D-08
    -.330370904131D-09  .100000000000D+01  .168500000000D+04  .000000000000D+00
     .240000000000D+01  .000000000000D+00 -.279396772385D-08  .660000000000D+02
     .432006000000D+06  .400000000000D+01
19 12  4 27  1 59 44.0 -.259539578110D-03 -.375166564481D-11  .000000000000D+00
     .300000000000D+01 -.700000000000D+01  .469269546960D-08  .158832565490D+01
    -.856816768646D-07  .817968451884D-02  .877864658833D-05  .515377962112D+04
     .439184000000D+06 -.558793544769D-08 -.156384420215D+01  .135973095894D-06
     .959795628072D+00  .209562500000D+03  .150729643066D+00 -.805212111745D-08
     .178221709364D-09  .100000000000D+01  .168500000000D+04  .000000000000D+00
     .240000000000D+01  .000000000000D+00 -.144354999065D-07  .300000000000D+01
     .434286000000D+06  .400000000000D+01
